NOAA 1 [-]              
1 04793U 70106A   22227.45191271 -.00000026  00000+0  11250-3 0  9992
2 04793 101.5529 289.7662 0031531 206.6622 271.9263 12.54006893364983
NOAA 2 (ITOS-D) [-]     
1 06235U 72082A   22227.92756167 -.00000032  00000+0  88563-4 0  9992
2 06235 101.9570 210.5399 0003940 327.7000  46.8260 12.53150383279426
NOAA 3 [-]              
1 06920U 73086A   22227.90200993 -.00000046  00000+0 -77862-6 0  9995
2 06920 102.2108 209.6208 0006271 177.8516 209.2849 12.40347479208163
NOAA 4 [-]              
1 07529U 74089A   22227.90941972 -.00000035  00000+0  71731-4 0  9998
2 07529 101.9173 207.7291 0009111 353.2855  34.3740 12.53159240183991
NOAA 5 [-]              
1 09057U 76077A   22227.87560097 -.00000011  00000+0  26219-3 0  9990
2 09057 102.1022 195.2405 0010318  30.9920 356.4957 12.37772965 81099
TIROS N [-]             
1 11060U 78096A   22227.88426281  .00000068  00000+0  53910-4 0  9997
2 11060  98.6312 280.0398 0010043 338.2312  21.8436 14.18405026480039
NOAA 6 [-]              
1 11416U 79057A   22227.79058229  .00000145  00000+0  68134-4 0  9993
2 11416  98.6642 238.7379 0011546  84.5201 275.7300 14.33784305250027
NOAA 7 [-]              
1 12553U 81059A   22227.52971021  .00000008  00000+0  26715-4 0  9993
2 12553  98.9950 272.6673 0010673 311.3282  48.6973 14.17339960126164
NOAA 8 [-]              
1 13923U 83022A   22227.74007257  .00000057  00000+0  40283-4 0  9992
2 13923  98.6900 218.0612 0015880  39.6156 320.6182 14.28823158 50878
NOAA 9 [-]              
1 15427U 84123A   22227.67837653  .00000044  00000+0  45547-4 0  9993
2 15427  99.0499 201.0056 0014960   1.7851 172.1071 14.16215431944999
NOAA 10 [-]             
1 16969U 86073A   22227.92323622  .00000046  00000+0  35618-4 0  9995
2 16969  98.5715 212.9928 0013024 134.2735 246.4389 14.28213486869329
NOAA 11 [-]             
1 19531U 88089A   22227.72687179  .00000012  00000+0  27239-4 0  9993
2 19531  98.4278 213.5623 0011438  14.0942 346.0550 14.15317841749208
NOAA 12 [-]             
1 21263U 91032A   22227.78278574  .00000047  00000+0  37386-4 0  9993
2 21263  98.5162 225.9466 0013983 161.0988 199.0714 14.26004637625184
NOAA 13 [-]             
1 22739U 93050A   22227.86343494  .00000068  00000+0  58836-4 0  9993
2 22739  98.5088 204.7139 0009627 166.2866 193.8571 14.12854861495448
NOAA 14 [-]             
1 23455U 94089A   22227.77362466  .00000010  00000+0  26342-4 0  9996
2 23455  98.4459 251.2637 0010095 147.9667 212.2123 14.14204866425090
NOAA 15 [B]             
1 25338U 98030A   22227.84429075  .00000116  00000+0  66519-4 0  9993
2 25338  98.6414 256.5945 0011427 121.6815 238.5480 14.26161327261484
NOAA 16 [-]             
1 26536U 00055A   22227.79373056  .00000037  00000+0  42143-4 0  9994
2 26536  98.6322 284.6360 0010437   2.8859 357.2373 14.13338411425730
NOAA 17 [-]             
1 27453U 02032A   22227.82947169  .00000043  00000+0  36892-4 0  9997
2 27453  98.6738 172.4056 0012988  98.1661 262.0993 14.25134083 47315
NOAA 18 [B]             
1 28654U 05018A   22227.76845438  .00000172  00000+0  11662-3 0  9997
2 28654  98.9460 298.1492 0014760 160.2446 199.9300 14.12764609888352
NOAA 19 [+]             
1 33591U 09005A   22227.84728722  .00000115  00000+0  87162-4 0  9994
2 33591  99.1445 263.2211 0014240  25.4409 334.7460 14.12598837696575
SUOMI NPP [+]           
1 37849U 11061A   22227.83334434  .00000035  00000+0  37551-4 0  9999
2 37849  98.7335 165.5669 0001247  86.5321 349.7605 14.19538107559625
NOAA 20 [+]             
1 43013U 17073A   22227.78246267  .00000040  00000+0  39684-4 0  9993
2 43013  98.7173 165.4145 0000737  89.4060 270.7201 14.19565632245640
